[{"OBJECT_NAME":"KORSAT-2","OBJECT_ID":"2024-247A","EPOCH":"2026-03-09T09:51:24.769440","MEAN_MOTION":14.99271316,"ECCENTRICITY":0.00097734,"INCLINATION":45.4085,"RA_OF_ASC_NODE":225.0391,"ARG_OF_PERICENTER":57.7708,"MEAN_ANOMALY":302.4117,"EPHEMERIS_TYPE":0,"CLASSIFICATION_TYPE":"U","NORAD_CAT_ID":62377,"ELEMENT_SET_NO":999,"REV_AT_EPOCH":6659,"BSTAR":0.00043497982,"MEAN_MOTION_DOT":5.163e-5,"MEAN_MOTION_DDOT":0},{"OBJECT_NAME":"PSLV R\/B","OBJECT_ID":"2018-071C","EPOCH":"2026-03-09T22:40:07.416192","MEAN_MOTION":15.00058604,"ECCENTRICITY":0.00237177,"INCLINATION":97.444,"RA_OF_ASC_NODE":249.6196,"ARG_OF_PERICENTER":104.8167,"MEAN_ANOMALY":255.5687,"EPHEMERIS_TYPE":0,"CLASSIFICATION_TYPE":"U","NORAD_CAT_ID":43620,"ELEMENT_SET_NO":999,"REV_AT_EPOCH":40754,"BSTAR":0.00020356401,"MEAN_MOTION_DOT":2.493e-5,"MEAN_MOTION_DDOT":0}]
